NORAD_CAT_ID,OBJECT_NAME,OBJECT_TYPE,EPOCH,MEAN_MOTION,ECCENTRICITY,INCLINATION,RA_OF_ASC_NODE,ARG_OF_PERICENTER,MEAN_ANOMALY,BSTAR,MEAN_MOTION_DOT,MEAN_MOTION_DDOT,TLE_LINE0,TLE_LINE1,TLE_LINE2,SEMIMAJOR_AXIS,PERIOD,APOGEE,PERIGEE,DECAYED
54174.0,STARLINK-5248,PAYLOAD,2024-01-18 22:12:38,15.0884462,0.0001182,53.2153,213.8483,93.4902,266.6225,0.0001357,1.873e-05,0.0,0 STARLINK-5248,1 54174U 22141T   24018.92544803  .00001873  00000-0  13570-3 0  9999,2 54174  53.2153 213.8483 0001182  93.4902 266.6225 15.08844620 68764,6917.866,95.437,540.549,538.914,0.0
54174.0,STARLINK-5248,PAYLOAD,2024-01-19 12:31:07,15.08839876,0.0001509,53.2152,211.1716,112.7928,247.3224,5.8488e-05,6.43e-06,0.0,0 STARLINK-5248,1 54174U 22141T   24019.52161310  .00000643  00000-0  58488-4 0  9996,2 54174  53.2152 211.1716 0001509 112.7928 247.3224 15.08839876 68840,6917.881,95.438,540.79,538.702,0.0
54174.0,STARLINK-5248,PAYLOAD,2024-01-19 22:03:25,15.08843478,0.0001223,53.2152,209.3875,93.2763,266.8369,6.7777e-05,7.91e-06,0.0,0 STARLINK-5248,1 54174U 22141T   24019.91905002  .00000791  00000-0  67777-4 0  9998,2 54174  53.2152 209.3875 0001223  93.2763 266.8369 15.08843478 68915,6917.87,95.437,540.581,538.889,0.0
54174.0,STARLINK-5248,PAYLOAD,2024-01-20 18:43:26,15.08841865,0.0001218,53.2151,205.5214,99.6153,260.4976,-3.387e-06,-3.42e-06,0.0,0 STARLINK-5248,1 54174U 22141T   24020.78017137 -.00000342  00000-0 -33870-5 0  9990,2 54174  53.2151 205.5214 0001218  99.6153 260.4976 15.08841865 69032,6917.875,95.437,540.582,538.897,0.0
54174.0,STARLINK-5248,PAYLOAD,2024-01-21 21:44:59,15.08845459,0.0001237,53.2156,200.4665,91.415,268.6984,6.0788e-05,6.8e-06,0.0,0 STARLINK-5248,1 54174U 22141T   24021.90624628  .00000680  00000-0  60788-4 0  9994,2 54174  53.2156 200.4665 0001237  91.4150 268.6984 15.08845459 69211,6917.864,95.437,540.584,538.873,0.0
54174.0,STARLINK-5248,PAYLOAD,2024-01-22 12:03:28,15.08833765,0.0001361,53.2157,197.7888,90.2333,269.8816,5.0125e-05,5.1e-06,0.0,0 STARLINK-5248,1 54174U 22141T   24022.50241461  .00000510  00000-0  50125-4 0  9997,2 54174  53.2157 197.7888 0001361  90.2333 269.8816 15.08833765 69297,6917.899,95.438,540.706,538.823,0.0
54174.0,STARLINK-5248,PAYLOAD,2024-01-22 16:49:38,15.08834026,0.0001374,53.216,196.8964,100.6204,259.4943,4.5413e-05,4.35e-06,0.0,0 STARLINK-5248,1 54174U 22141T   24022.70113469  .00000435  00000-0  45413-4 0  9995,2 54174  53.2160 196.8964 0001374 100.6204 259.4943 15.08834026 69335,6917.899,95.438,540.714,538.813,0.0
54174.0,STARLINK-5248,PAYLOAD,2024-01-23 02:21:56,15.08835735,0.0001253,53.2161,195.1111,88.9778,271.1358,3.9865e-05,3.47e-06,0.0,0 STARLINK-5248,1 54174U 22141T   24023.09857423  .00000347  00000-0  39865-4 0  9999,2 54174  53.2161 195.1111 0001253  88.9778 271.1358 15.08835735 69397,6917.893,95.438,540.625,538.892,0.0
54174.0,STARLINK-5248,PAYLOAD,2024-01-23 10:18:52,15.08859161,0.0001394,53.2156,193.6235,115.3121,244.8016,-0.0002581,-4.395e-05,0.0,0 STARLINK-5248,1 54174U 22141T   24023.42977197 -.00004395  00000-0 -25810-3 0  9990,2 54174  53.2156 193.6235 0001394 115.3121 244.8016 15.08859161 69436,6917.822,95.436,540.651,538.722,0.0
54174.0,STARLINK-5248,PAYLOAD,2024-01-23 21:26:33,15.08848341,0.0001321,53.2161,191.5454,103.7768,256.3371,6.6695e-05,7.74e-06,0.0,0 STARLINK-5248,1 54174U 22141T   24023.89344500  .00000774  00000-0  66695-4 0  9999,2 54174  53.2161 191.5454 0001321 103.7768 256.3371 15.08848341 69519,6917.855,95.437,540.634,538.806,0.0
54174.0,STARLINK-5248,PAYLOAD,2024-01-24 10:09:40,15.08829441,0.0001132,53.2163,189.1661,100.4374,259.6745,7.2814e-06,-1.72e-06,0.0,0 STARLINK-5248,1 54174U 22141T   24024.42338037 -.00000172  00000-0  72814-5 0  9991,2 54174  53.2163 189.1661 0001132 100.4374 259.6745 15.08829441 69589,6917.913,95.438,540.561,538.995,0.0
54174.0,STARLINK-5248,PAYLOAD,2024-01-24 14:55:49,15.08835458,0.0001354,53.2158,188.2744,97.4803,262.6343,3.5307e-05,2.74e-06,0.0,0 STARLINK-5248,1 54174U 22141T   24024.62209725  .00000274  00000-0  35307-4 0  9991,2 54174  53.2158 188.2744 0001354  97.4803 262.6343 15.08835458 69621,6917.894,95.438,540.696,538.823,0.0
54174.0,STARLINK-5248,PAYLOAD,2024-01-24 19:41:58,15.0883986,0.00013,53.2162,187.383,95.1089,265.0051,9.0403e-05,1.151e-05,0.0,0 STARLINK-5248,1 54174U 22141T   24024.82081421  .00001151  00000-0  90403-4 0  9997,2 54174  53.2162 187.3830 0001300  95.1089 265.0051 15.08839860 69640,6917.881,95.438,540.645,538.846,0.0
54174.0,STARLINK-5248,PAYLOAD,2024-01-24 21:17:21,15.08842775,0.0001297,53.2161,187.0857,95.0027,265.1113,0.00011378,1.524e-05,0.0,0 STARLINK-5248,1 54174U 22141T   24024.88705185  .00001524  00000-0  11378-3 0  9990,2 54174  53.2161 187.0857 0001297  95.0027 265.1113 15.08842775 69662,6917.872,95.437,540.634,538.84,0.0
54174.0,STARLINK-5248,PAYLOAD,2024-01-25 14:46:36,15.08832648,0.0001358,53.216,183.8144,98.8521,261.2625,-2.556e-05,-6.95e-06,0.0,0 STARLINK-5248,1 54174U 22141T   24025.61570444 -.00000695  00000-0 -25560-4 0  9999,2 54174  53.2160 183.8144 0001358  98.8521 261.2625 15.08832648 69777,6917.903,95.438,540.707,538.828,0.0
54174.0,STARLINK-5248,PAYLOAD,2024-01-25 17:57:22,15.08836113,0.000135,53.216,183.2197,97.5776,262.537,3.2799e-06,-2.36e-06,0.0,0 STARLINK-5248,1 54174U 22141T   24025.74818184 -.00000236  00000-0  32799-5 0  9992,2 54174  53.2160 183.2197 0001350  97.5776 262.5370 15.08836113 69782,6917.892,95.438,540.691,538.823,0.0
54174.0,STARLINK-5248,PAYLOAD,2024-01-26 14:37:22,15.08845346,0.0001249,53.216,179.3541,93.6397,266.4738,0.00015371,2.16e-05,0.0,0 STARLINK-5248,1 54174U 22141T   24026.60929350  .00002160  00000-0  15371-3 0  9998,2 54174  53.2160 179.3541 0001249  93.6397 266.4738 15.08845346 69929,6917.864,95.437,540.593,538.865,0.0
54174.0,STARLINK-5248,PAYLOAD,2024-01-26 19:23:32,15.08852789,0.0001268,53.2152,178.4617,84.3343,275.7793,0.00032167,4.837e-05,0.0,0 STARLINK-5248,1 54174U 22141T   24026.80801213  .00004837  00000-0  32167-3 0  9992,2 54174  53.2152 178.4617 0001268  84.3343 275.7793 15.08852789 69948,6917.841,95.437,540.583,538.829,0.0
54174.0,STARLINK-5248,PAYLOAD,2024-01-27 09:42:00,15.08839046,0.0001187,53.2162,175.7832,120.6117,239.4992,8.7989e-05,1.113e-05,0.0,0 STARLINK-5248,1 54174U 22141T   24027.40417789  .00001113  00000-0  87989-4 0  9997,2 54174  53.2162 175.7832 0001187 120.6117 239.4992 15.08839046 70032,6917.883,95.438,540.569,538.927,0.0
54174.0,STARLINK-5248,PAYLOAD,2024-01-27 14:28:10,15.08843269,0.0001532,53.2153,174.8923,97.1693,262.9473,0.00015486,2.178e-05,0.0,0 STARLINK-5248,1 54174U 22141T   24027.60289775  .00002178  00000-0  15486-3 0  9995,2 54174  53.2153 174.8923 0001532  97.1693 262.9473 15.08843269 70075,6917.87,95.437,540.795,538.676,0.0
54174.0,STARLINK-5248,PAYLOAD,2024-01-27 16:03:33,15.08843362,0.0001236,53.2155,174.5951,100.253,259.8602,0.00015652,2.204e-05,0.0,0 STARLINK-5248,1 54174U 22141T   24027.66913733  .00002204  00000-0  15652-3 0  9994,2 54174  53.2155 174.5951 0001236 100.2530 259.8602 15.08843362 70086,6917.87,95.437,540.59,538.88,0.0
54174.0,STARLINK-5248,PAYLOAD,2024-01-28 14:18:57,15.08839469,0.0001371,53.2162,170.4341,112.0235,248.0903,-5.465e-05,-1.158e-05,0.0,0 STARLINK-5248,1 54174U 22141T   24028.59650051 -.00001158  00000-0 -54650-4 0  9999,2 54174  53.2162 170.4341 0001371 112.0235 248.0903 15.08839469 70228,6917.882,95.438,540.695,538.799,0.0
54174.0,STARLINK-5248,PAYLOAD,2024-01-28 15:54:20,15.08839226,0.0001445,53.2163,170.1368,116.884,243.23,-3.9326e-05,-9.14e-06,0.0,0 STARLINK-5248,1 54174U 22141T   24028.66274056 -.00000914  00000-0 -39326-4 0  9996,2 54174  53.2163 170.1368 0001445 116.8840 243.2300 15.08839226 70220,6917.883,95.438,540.747,538.748,0.0
54174.0,STARLINK-5248,PAYLOAD,2024-01-29 12:34:21,15.0884355,0.0001376,53.2173,166.2724,94.4315,265.6834,0.00015183,2.129e-05,0.0,0 STARLINK-5248,1 54174U 22141T   24029.52385764  .00002129  00000-0  15183-3 0  9993,2 54174  53.2173 166.2724 0001376  94.4315 265.6834 15.08843550 70364,6917.87,95.437,540.686,538.783,0.0
54174.0,STARLINK-5248,PAYLOAD,2024-01-30 12:25:08,15.0883721,0.0001253,53.2172,161.8114,86.9265,273.1871,8.949e-05,1.137e-05,0.0,0 STARLINK-5248,1 54174U 22141T   24030.51746500  .00001137  00000-0  89490-4 0  9994,2 54174  53.2172 161.8114 0001253  86.9265 273.1871 15.08837210 70508,6917.889,95.438,540.621,538.887,0.0
54174.0,STARLINK-5248,PAYLOAD,2024-01-30 14:00:32,15.08838143,0.000128,53.2175,161.5146,84.0764,276.0374,9.5291e-05,1.229e-05,0.0,0 STARLINK-5248,1 54174U 22141T   24030.58370449  .00001229  00000-0  95291-4 0  9994,2 54174  53.2175 161.5146 0001280  84.0764 276.0374 15.08838143 70524,6917.886,95.438,540.637,538.866,0.0
54174.0,STARLINK-5248,PAYLOAD,2024-01-30 15:35:55,15.0884007,0.0001312,53.2171,161.2164,91.9294,268.1848,0.00011312,1.513e-05,0.0,0 STARLINK-5248,1 54174U 22141T   24030.64994253  .00001513  00000-0  11312-3 0  9993,2 54174  53.2171 161.2164 0001312  91.9294 268.1848 15.08840070 70539,6917.88,95.438,540.653,538.838,0.0
54174.0,STARLINK-5248,PAYLOAD,2024-01-31 12:15:55,15.08855296,0.0001595,53.218,157.3509,105.9476,254.1692,-0.00022788,-3.914e-05,0.0,0 STARLINK-5248,1 54174U 22141T   24031.51106226 -.00003914  00000-0 -22788-3 0  9993,2 54174  53.2180 157.3509 0001595 105.9476 254.1692 15.08855296 70650,6917.834,95.437,540.802,538.595,0.0
54174.0,STARLINK-5248,PAYLOAD,2024-02-01 12:06:43,15.08836894,0.0001524,53.2183,152.891,110.6524,249.4632,6.3019e-05,7.15e-06,0.0,0 STARLINK-5248,1 54174U 22141T   24032.50466809  .00000715  00000-0  63019-4 0  9996,2 54174  53.2183 152.8910 0001524 110.6524 249.4632 15.08836894 70809,6917.89,95.438,540.809,538.701,0.0
54174.0,STARLINK-5248,PAYLOAD,2024-02-02 13:32:53,15.0884537,0.000136,53.2174,148.1324,93.606,266.5088,9.434e-05,1.214e-05,0.0,0 STARLINK-5248,1 54174U 22141T   24033.56450273  .00001214  00000-0  94340-4 0  9997,2 54174  53.2174 148.1324 0001360  93.6060 266.5088 15.08845370 70971,6917.864,95.437,540.67,538.788,0.0
